NORAD_CAT_ID,OBJECT_NAME,OBJECT_TYPE,EPOCH,MEAN_MOTION,ECCENTRICITY,INCLINATION,RA_OF_ASC_NODE,ARG_OF_PERICENTER,MEAN_ANOMALY,BSTAR,MEAN_MOTION_DOT,MEAN_MOTION_DDOT,TLE_LINE0,TLE_LINE1,TLE_LINE2,SEMIMAJOR_AXIS,PERIOD,APOGEE,PERIGEE,DECAYED
53567.0,STARLINK-4585,PAYLOAD,2023-12-27 09:30:19,15.0883402,0.0001608,53.2189,60.3525,102.1461,257.9712,1.7225e-06,-2.61e-06,0.0,0 STARLINK-4585,1 53567U 22101AS  23361.39605447 -.00000261  00000-0  17225-5 0  9997,2 53567  53.2189  60.3525 0001608 102.1461 257.9712 15.08834020 75171,6917.899,95.438,540.876,538.651,0.0
53567.0,STARLINK-4585,PAYLOAD,2023-12-28 04:34:57,15.08806662,0.0001582,53.2192,56.7835,115.3992,244.7164,0.00049039,7.518e-05,0.0,0 STARLINK-4585,1 53567U 22101AS  23362.19093775  .00007518  00000-0  49039-3 0  9998,2 53567  53.2192  56.7835 0001582 115.3992 244.7164 15.08806662 75293,6917.982,95.44,540.942,538.753,0.0
53567.0,STARLINK-4585,PAYLOAD,2023-12-28 14:07:15,15.08841002,0.0001492,53.2188,55.0004,100.6349,259.4811,0.00012723,1.738e-05,0.0,0 STARLINK-4585,1 53567U 22101AS  23362.58836976  .00001738  00000-0  12723-3 0  9997,2 53567  53.2188  55.0004 0001492 100.6349 259.4811 15.08841002 75357,6917.877,95.437,540.774,538.71,0.0
53567.0,STARLINK-4585,PAYLOAD,2023-12-29 04:25:44,15.08834641,0.000138,53.2177,52.323,94.7778,265.3372,2.8855e-05,1.71e-06,0.0,0 STARLINK-4585,1 53567U 22101AS  23363.18453895  .00000171  00000-0  28855-4 0  9993,2 53567  53.2177  52.3230 0001380  94.7778 265.3372 15.08834641 75440,6917.897,95.438,540.716,538.807,0.0
53567.0,STARLINK-4585,PAYLOAD,2023-12-29 10:47:16,15.08841864,0.0001354,53.2178,51.1331,92.6443,267.4704,9.5833e-05,1.238e-05,0.0,0 STARLINK-4585,1 53567U 22101AS  23363.44949371  .00001238  00000-0  95833-4 0  9996,2 53567  53.2178  51.1331 0001354  92.6443 267.4704 15.08841864 75488,6917.875,95.437,540.676,538.803,0.0
53567.0,STARLINK-4585,PAYLOAD,2023-12-30 10:38:03,15.08845929,0.0001439,53.2179,46.6724,86.4359,273.6798,7.933e-05,9.75e-06,0.0,0 STARLINK-4585,1 53567U 22101AS  23364.44309189  .00000975  00000-0  79330-4 0  9995,2 53567  53.2179  46.6724 0001439  86.4359 273.6798 15.08845929 75630,6917.862,95.437,540.723,538.732,0.0
53567.0,STARLINK-4585,PAYLOAD,2023-12-31 02:31:55,15.08834817,0.0001532,53.2173,43.7031,80.1155,280.001,6.5174e-05,7.49e-06,0.0,0 STARLINK-4585,1 53567U 22101AS  23365.10549967  .00000749  00000-0  65174-4 0  9999,2 53567  53.2173  43.7031 0001532  80.1155 280.0010 15.08834817 75736,6917.896,95.438,540.821,538.701,0.0
53567.0,STARLINK-4585,PAYLOAD,2023-12-31 12:04:13,15.08839706,0.0001494,53.2174,41.9171,88.8873,271.229,5.2506e-05,5.48e-06,0.0,0 STARLINK-4585,1 53567U 22101AS  23365.50293754  .00000548  00000-0  52506-4 0  9995,2 53567  53.2174  41.9171 0001494  88.8873 271.2290 15.08839706 75791,6917.881,95.438,540.78,538.713,0.0
53567.0,STARLINK-4585,PAYLOAD,2024-01-01 11:55:00,15.08850877,0.0001506,53.217,37.4554,99.9461,260.1701,4.4282e-05,4.17e-06,0.0,0 STARLINK-4585,1 53567U 22101AS  24001.49652909  .00000417  00000-0  44282-4 0  9999,2 53567  53.2170  37.4554 0001506  99.9461 260.1701 15.08850877 75945,6917.847,95.437,540.754,538.67,0.0
53567.0,STARLINK-4585,PAYLOAD,2024-01-02 02:13:29,15.08825677,0.0001826,53.2191,34.7745,118.2223,241.8954,0.00014694,2.05e-05,0.0,0 STARLINK-4585,1 53567U 22101AS  24002.09270081  .00002050  00000-0  14694-3 0  9991,2 53567  53.2191  34.7745 0001826 118.2223 241.8954 15.08825677 76033,6917.924,95.438,541.052,538.526,0.0
53567.0,STARLINK-4585,PAYLOAD,2024-01-02 08:35:01,15.08837556,0.0001527,53.2176,33.5906,99.597,260.5195,7.5039e-05,9.06e-06,0.0,0 STARLINK-4585,1 53567U 22101AS  24002.35765781  .00000906  00000-0  75039-4 0  9995,2 53567  53.2176  33.5906 0001527  99.5970 260.5195 15.08837556 76078,6917.888,95.438,540.809,538.696,0.0
53567.0,STARLINK-4585,PAYLOAD,2024-01-03 08:25:48,15.08841477,0.0001589,53.2186,29.1308,99.514,260.6032,-3.8261e-05,-8.97e-06,0.0,0 STARLINK-4585,1 53567U 22101AS  24003.35126047 -.00000897  00000-0 -38261-4 0  9999,2 53567  53.2186  29.1308 0001589  99.5140 260.6032 15.08841477 76228,6917.876,95.437,540.84,538.642,0.0
53567.0,STARLINK-4585,PAYLOAD,2024-01-04 01:55:03,15.08835868,0.0001568,53.2185,25.8597,99.8653,260.2517,2.8039e-05,1.58e-06,0.0,0 STARLINK-4585,1 53567U 22101AS  24004.07990344  .00000158  00000-0  28039-4 0  9998,2 53567  53.2185  25.8597 0001568  99.8653 260.2517 15.08835868 76332,6917.893,95.438,540.843,538.673,0.0
53567.0,STARLINK-4585,PAYLOAD,2024-01-04 05:05:49,15.08836788,0.0001563,53.2185,25.2649,100.4927,259.6241,3.4334e-05,2.58e-06,0.0,0 STARLINK-4585,1 53567U 22101AS  24004.21238278  .00000258  00000-0  34334-4 0  9991,2 53567  53.2185  25.2649 0001563 100.4927 259.6241 15.08836788 76352,6917.89,95.438,540.836,538.674,0.0
53567.0,STARLINK-4585,PAYLOAD,2024-01-04 06:41:12,15.08837924,0.0001551,53.2182,24.9675,97.3572,262.7597,4.3582e-05,4.06e-06,0.0,0 STARLINK-4585,1 53567U 22101AS  24004.27862196  .00000406  00000-0  43582-4 0  9999,2 53567  53.2182  24.9675 0001551  97.3572 262.7597 15.08837924 76364,6917.887,95.438,540.825,538.679,0.0
53567.0,STARLINK-4585,PAYLOAD,2024-01-05 04:56:37,15.08834194,0.0001535,53.2178,20.804,102.7188,257.3976,3.3421e-05,2.44e-06,0.0,0 STARLINK-4585,1 53567U 22101AS  24005.20598672  .00000244  00000-0  33421-4 0  9999,2 53567  53.2178  20.8040 0001535 102.7188 257.3976 15.08834194 76509,6917.898,95.438,540.825,538.701,0.0
53567.0,STARLINK-4585,PAYLOAD,2024-01-05 09:42:46,15.08838355,0.0001523,53.2183,19.9123,98.433,261.6835,6.3739e-05,7.27e-06,0.0,0 STARLINK-4585,1 53567U 22101AS  24005.40470414  .00000727  00000-0  63739-4 0  9995,2 53567  53.2183  19.9123 0001523  98.4330 261.6835 15.08838355 76531,6917.885,95.438,540.804,538.697,0.0
53567.0,STARLINK-4585,PAYLOAD,2024-01-06 09:33:33,15.08843639,0.0001443,53.2179,15.4513,83.7017,276.4139,7.7834e-05,9.51e-06,0.0,0 STARLINK-4585,1 53567U 22101AS  24006.39830223  .00000951  00000-0  77834-4 0  9992,2 53567  53.2179  15.4513 0001443  83.7017 276.4139 15.08843639 76688,6917.869,95.437,540.733,538.736,0.0
53567.0,STARLINK-4585,PAYLOAD,2024-01-06 23:52:01,15.08839567,0.0001455,53.2187,12.7722,82.3471,277.7686,2.8244e-05,1.62e-06,0.0,0 STARLINK-4585,1 53567U 22101AS  24006.99446653  .00000162  00000-0  28244-4 0  9993,2 53567  53.2187  12.7722 0001455  82.3471 277.7686 15.08839567 76777,6917.882,95.438,540.753,538.74,0.0
53567.0,STARLINK-4585,PAYLOAD,2024-01-07 09:24:20,15.08829837,0.0001579,53.2186,10.9876,84.568,275.5492,0.00032699,4.918e-05,0.0,0 STARLINK-4585,1 53567U 22101AS  24007.39190329  .00004918  00000-0  32699-3 0  9995,2 53567  53.2186  10.9876 0001579  84.5680 275.5492 15.08829837 76836,6917.911,95.438,540.869,538.684,0.0
53567.0,STARLINK-4585,PAYLOAD,2024-01-08 06:04:21,15.08844882,0.000144,53.2181,7.1193,91.1485,268.9672,-1.6799e-06,-3.15e-06,0.0,0 STARLINK-4585,1 53567U 22101AS  24008.25302224 -.00000315  00000-0 -16799-5 0  9994,2 53567  53.2181   7.1193 0001440  91.1485 268.9672 15.08844882 76962,6917.865,95.437,540.727,538.734,0.0
53567.0,STARLINK-4585,PAYLOAD,2024-01-09 09:05:54,15.08844669,0.0001502,53.2183,2.0667,98.1171,261.9992,4.6569e-05,4.53e-06,0.0,0 STARLINK-4585,1 53567U 22101AS  24009.37909951  .00000453  00000-0  46569-4 0  9996,2 53567  53.2183   2.0667 0001502  98.1171 261.9992 15.08844669 77133,6917.866,95.437,540.77,538.692,0.0
53567.0,STARLINK-4585,PAYLOAD,2024-01-10 02:35:08,15.08839161,0.0001812,53.2169,358.7967,112.1893,247.9291,3.9413e-05,3.39e-06,0.0,0 STARLINK-4585,1 53567U 22101AS  24010.10774297  .00000339  00000-0  39413-4 0  9995,2 53567  53.2169 358.7967 0001812 112.1893 247.9291 15.08839161 77242,6917.883,95.438,541.001,538.494,0.0
53567.0,STARLINK-4585,PAYLOAD,2024-01-10 08:56:41,15.08843017,0.0001727,53.2175,357.6081,107.8126,252.3055,-5.3148e-06,-3.73e-06,0.0,0 STARLINK-4585,1 53567U 22101AS  24010.37270183 -.00000373  00000-0 -53148-5 0  9991,2 53567  53.2175 357.6081 0001727 107.8126 252.3055 15.08843017 77286,6917.871,95.437,540.931,538.541,0.0
53567.0,STARLINK-4585,PAYLOAD,2024-01-11 04:01:19,15.08841083,0.0001887,53.2181,354.0385,119.901,240.217,-5.9989e-06,-3.84e-06,0.0,0 STARLINK-4585,1 53567U 22101AS  24011.16758420 -.00000384  00000-0 -59989-5 0  9995,2 53567  53.2181 354.0385 0001887 119.9010 240.2170 15.08841083 77403,6917.877,95.437,541.047,538.437,0.0
53567.0,STARLINK-4585,PAYLOAD,2024-01-11 08:47:28,15.08845856,0.0001539,53.2185,353.1458,104.1222,255.9941,4.2404e-05,3.87e-06,0.0,0 STARLINK-4585,1 53567U 22101AS  24011.36630022  .00000387  00000-0  42404-4 0  9998,2 53567  53.2185 353.1458 0001539 104.1222 255.9941 15.08845856 77437,6917.862,95.437,540.792,538.663,0.0
53567.0,STARLINK-4585,PAYLOAD,2024-01-12 03:52:06,15.08839176,0.0001524,53.2178,349.5739,106.3812,253.7348,-1.3653e-05,-5.05e-06,0.0,0 STARLINK-4585,1 53567U 22101AS  24012.16118755 -.00000505  00000-0 -13653-4 0  9999,2 53567  53.2178 349.5739 0001524 106.3812 253.7348 15.08839176 77551,6917.883,95.438,540.802,538.694,0.0
53567.0,STARLINK-4585,PAYLOAD,2024-01-12 21:21:21,15.08829757,0.0001558,53.2176,346.3045,109.4654,250.6507,-7.0211e-06,-4e-06,0.0,0 STARLINK-4585,1 53567U 22101AS  24012.88983764 -.00000400  00000-0 -70211-5 0  9996,2 53567  53.2176 346.3045 0001558 109.4654 250.6507 15.08829757 77668,6917.912,95.438,540.855,538.699,0.0
53567.0,STARLINK-4585,PAYLOAD,2024-01-13 03:42:53,15.08843039,0.0001347,53.2174,345.1223,100.181,259.9335,-1.5845e-05,-5.4e-06,0.0,0 STARLINK-4585,1 53567U 22101AS  24013.15479065 -.00000540  00000-0 -15845-4 0  9997,2 53567  53.2174 345.1223 0001347 100.1810 259.9335 15.08843039 77704,6917.871,95.437,540.668,538.804,0.0
53567.0,STARLINK-4585,PAYLOAD,2024-01-14 03:33:41,15.08839761,0.0001399,53.2177,340.6629,85.0554,275.0598,0.0001043,1.372e-05,0.0,0 STARLINK-4585,1 53567U 22101AS  24014.14839253  .00001372  00000-0  10430-3 0  9992,2 53567  53.2177 340.6629 0001399  85.0554 275.0598 15.08839761 77853,6917.881,95.438,540.714,538.778,0.0
